[{"OBJECT_NAME":"IRIDE-MS2-HEO-8","OBJECT_ID":"2025-135BM","EPOCH":"2026-03-09T23:04:08.225184","MEAN_MOTION":14.94180464,"ECCENTRICITY":0.0003471,"INCLINATION":97.7603,"RA_OF_ASC_NODE":184.687,"ARG_OF_PERICENTER":319.3554,"MEAN_ANOMALY":40.7407,"EPHEMERIS_TYPE":0,"CLASSIFICATION_TYPE":"U","NORAD_CAT_ID":64587,"ELEMENT_SET_NO":999,"REV_AT_EPOCH":3909,"BSTAR":0.00027897299,"MEAN_MOTION_DOT":2.931e-5,"MEAN_MOTION_DDOT":0},{"OBJECT_NAME":"OBJECT D","OBJECT_ID":"2025-274D","EPOCH":"2026-03-09T17:23:54.815136","MEAN_MOTION":14.92403662,"ECCENTRICITY":0.0012011,"INCLINATION":97.7437,"RA_OF_ASC_NODE":359.4086,"ARG_OF_PERICENTER":332.7011,"MEAN_ANOMALY":27.3575,"EPHEMERIS_TYPE":0,"CLASSIFICATION_TYPE":"U","NORAD_CAT_ID":66653,"ELEMENT_SET_NO":999,"REV_AT_EPOCH":1537,"BSTAR":0.00025671905,"MEAN_MOTION_DOT":2.576e-5,"MEAN_MOTION_DDOT":0}]
